{
  "type": "FeatureCollection",
  "features": [
    {
      "type": "Feature",
      "properties": {
        "norad_id": 34350,
        "name": "IRIDIUM 33 DEB",
        "group": "iridium-33-debris",
        "lat": -20.538117015226828,
        "lon": -178.2588706647036,
        "alt_km": 743.9324669226289,
        "timestamp": "2025-12-18T08:58:43.799792+00:00",
        "meta_object_name": "IRIDIUM 33 DEB",
        "meta_object_id": "1997-051ES",
        "meta_epoch": "2025-12-17T12:40:13.196928",
        "meta_mean_motion": 14.45397938,
        "meta_eccentricity": 0.00231831,
        "meta_inclination": 86.3272,
        "meta_ra_of_asc_node": 0.7293,
        "meta_arg_of_pericenter": 120.4242,
        "meta_mean_anomaly": 359.5053,
        "meta_ephemeris_type": 0,
        "meta_classification_type": "U",
        "meta_norad_cat_id": 34350,
        "meta_element_set_no": 999,
        "meta_rev_at_epoch": 88362,
        "meta_bstar": 0.00027248042,
        "meta_mean_motion_dot": 9.81e-06,
        "meta_mean_motion_ddot": 0,
        "tle_line1": "1 34350U 97051ES  25351.52793052  .00000981  00000+0  27248-3 0  9999",
        "tle_line2": "2 34350  86.3272   0.7293 0023183 120.4242 359.5053 14.45397938883628"
      },
      "geometry": {
        "type": "Point",
        "coordinates": [
          -178.2588706647036,
          -20.538117015226828
        ]
      }
    },
    {
      "type": "Feature",
      "properties": {
        "norad_id": 34366,
        "name": "IRIDIUM 33 DEB",
        "group": "iridium-33-debris",
        "lat": -16.113726861089294,
        "lon": 45.81246338756704,
        "alt_km": 729.1996965061526,
        "timestamp": "2025-12-18T08:58:43.799803+00:00",
        "meta_object_name": "IRIDIUM 33 DEB",
        "meta_object_id": "1997-051FJ",
        "meta_epoch": "2025-12-17T15:27:08.430048",
        "meta_mean_motion": 14.54097613,
        "meta_eccentricity": 0.00228439,
        "meta_inclination": 86.3698,
        "meta_ra_of_asc_node": 47.1809,
        "meta_arg_of_pericenter": 124.3183,
        "meta_mean_anomaly": 359.4993,
        "meta_ephemeris_type": 0,
        "meta_classification_type": "U",
        "meta_norad_cat_id": 34366,
        "meta_element_set_no": 999,
        "meta_rev_at_epoch": 88253,
        "meta_bstar": 0.00072705325,
        "meta_mean_motion_dot": 3.101e-05,
        "meta_mean_motion_ddot": 0,
        "tle_line1": "1 34366U 97051FJ  25351.64384757  .00003101  00000+0  72705-3 0  9992",
        "tle_line2": "2 34366  86.3698  47.1809 0022843 124.3183 359.4993 14.54097613882532"
      },
      "geometry": {
        "type": "Point",
        "coordinates": [
          45.81246338756704,
          -16.113726861089294
        ]
      }
    },
    {
      "type": "Feature",
      "properties": {
        "norad_id": 34375,
        "name": "IRIDIUM 33 DEB",
        "group": "iridium-33-debris",
        "lat": -68.92101660696927,
        "lon": 9.743453474898873,
        "alt_km": 896.4590987822803,
        "timestamp": "2025-12-18T08:58:43.799814+00:00",
        "meta_object_name": "IRIDIUM 33 DEB",
        "meta_object_id": "1997-051FT",
        "meta_epoch": "2025-12-17T13:26:35.352096",
        "meta_mean_motion": 14.18001231,
        "meta_eccentricity": 0.01035674,
        "meta_inclination": 86.4323,
        "meta_ra_of_asc_node": 180.7567,
        "meta_arg_of_pericenter": 111.645,
        "meta_mean_anomaly": 304.0989,
        "meta_ephemeris_type": 0,
        "meta_classification_type": "U",
        "meta_norad_cat_id": 34375,
        "meta_element_set_no": 999,
        "meta_rev_at_epoch": 86780,
        "meta_bstar": 0.00036037752,
        "meta_mean_motion_dot": 7.98e-06,
        "meta_mean_motion_ddot": 0,
        "tle_line1": "1 34375U 97051FT  25351.56013139  .00000798  00000+0  36038-3 0  9994",
        "tle_line2": "2 34375  86.4323 180.7567 0103567 111.6450 304.0989 14.18001231867807"
      },
      "geometry": {
        "type": "Point",
        "coordinates": [
          9.743453474898873,
          -68.92101660696927
        ]
      }
    },
    {
      "type": "Feature",
      "properties": {
        "norad_id": 34376,
        "name": "IRIDIUM 33 DEB",
        "group": "iridium-33-debris",
        "lat": 83.00154426948912,
        "lon": 35.837821418836704,
        "alt_km": 668.5595772316738,
        "timestamp": "2025-12-18T08:58:43.799824+00:00",
        "meta_object_name": "IRIDIUM 33 DEB",
        "meta_object_id": "1997-051FU",
        "meta_epoch": "2025-12-17T11:15:00.720576",
        "meta_mean_motion": 14.6263273,
        "meta_eccentricity": 0.00277539,
        "meta_inclination": 86.2981,
        "meta_ra_of_asc_node": 4.4142,
        "meta_arg_of_pericenter": 150.9794,
        "meta_mean_anomaly": 209.2968,
        "meta_ephemeris_type": 0,
        "meta_classification_type": "U",
        "meta_norad_cat_id": 34376,
        "meta_element_set_no": 999,
        "meta_rev_at_epoch": 88076,
        "meta_bstar": 0.0010721746,
        "meta_mean_motion_dot": 5.502e-05,
        "meta_mean_motion_ddot": 0,
        "tle_line1": "1 34376U 97051FU  25351.46875834  .00005502  00000+0  10722-2 0  9991",
        "tle_line2": "2 34376  86.2981   4.4142 0027753 150.9794 209.2968 14.62632730880762"
      },
      "geometry": {
        "type": "Point",
        "coordinates": [
          35.837821418836704,
          83.00154426948912
        ]
      }
    },
    {
      "type": "Feature",
      "properties": {
        "norad_id": 34486,
        "name": "IRIDIUM 33 DEB",
        "group": "iridium-33-debris",
        "lat": -75.52716556929661,
        "lon": -156.42984432145457,
        "alt_km": 595.6669269926551,
        "timestamp": "2025-12-18T08:58:43.799834+00:00",
        "meta_object_name": "IRIDIUM 33 DEB",
        "meta_object_id": "1997-051GB",
        "meta_epoch": "2025-12-17T01:34:32.789856",
        "meta_mean_motion": 14.95995352,
        "meta_eccentricity": 0.00138977,
        "meta_inclination": 86.393,
        "meta_ra_of_asc_node": 10.0283,
        "meta_arg_of_pericenter": 100.1337,
        "meta_mean_anomaly": 313.5239,
        "meta_ephemeris_type": 0,
        "meta_classification_type": "U",
        "meta_norad_cat_id": 34486,
        "meta_element_set_no": 999,
        "meta_rev_at_epoch": 89051,
        "meta_bstar": 0.0017072639,
        "meta_mean_motion_dot": 0.00019234,
        "meta_mean_motion_ddot": 0,
        "tle_line1": "1 34486U 97051GB  25351.06565729  .00019234  00000+0  17073-2 0  9991",
        "tle_line2": "2 34486  86.3930  10.0283 0013897 100.1337 313.5239 14.95995352890514"
      },
      "geometry": {
        "type": "Point",
        "coordinates": [
          -156.42984432145457,
          -75.52716556929661
        ]
      }
    },
    {
      "type": "Feature",
      "properties": {
        "norad_id": 34487,
        "name": "IRIDIUM 33 DEB",
        "group": "iridium-33-debris",
        "lat": -75.94654755942467,
        "lon": -4.850533592849634,
        "alt_km": 778.6907201562153,
        "timestamp": "2025-12-18T08:58:43.799845+00:00",
        "meta_object_name": "IRIDIUM 33 DEB",
        "meta_object_id": "1997-051GC",
        "meta_epoch": "2025-12-17T08:26:40.670304",
        "meta_mean_motion": 14.43222071,
        "meta_eccentricity": 0.00330822,
        "meta_inclination": 86.3432,
        "meta_ra_of_asc_node": 10.3915,
        "meta_arg_of_pericenter": 114.0104,
        "meta_mean_anomaly": 261.6876,
        "meta_ephemeris_type": 0,
        "meta_classification_type": "U",
        "meta_norad_cat_id": 34487,
        "meta_element_set_no": 999,
        "meta_rev_at_epoch": 88315,
        "meta_bstar": 0.00016017609,
        "meta_mean_motion_dot": 5.62e-06,
        "meta_mean_motion_ddot": 0,
        "tle_line1": "1 34487U 97051GC  25351.35185961  .00000562  00000+0  16018-3 0  9993",
        "tle_line2": "2 34487  86.3432  10.3915 0033082 114.0104 261.6876 14.43222071883157"
      },
      "geometry": {
        "type": "Point",
        "coordinates": [
          -4.850533592849634,
          -75.94654755942467
        ]
      }
    },
    {
      "type": "Feature",
      "properties": {
        "norad_id": 34488,
        "name": "IRIDIUM 33 DEB",
        "group": "iridium-33-debris",
        "lat": -32.178578769641426,
        "lon": 125.33811022896366,
        "alt_km": 487.6413466775193,
        "timestamp": "2025-12-18T08:58:43.799855+00:00",
        "meta_object_name": "IRIDIUM 33 DEB",
        "meta_object_id": "1997-051GD",
        "meta_epoch": "2025-12-17T21:04:21.136224",
        "meta_mean_motion": 15.3067143,
        "meta_eccentricity": 0.00116454,
        "meta_inclination": 86.3226,
        "meta_ra_of_asc_node": 303.2651,
        "meta_arg_of_pericenter": 42.4778,
        "meta_mean_anomaly": 317.737,
        "meta_ephemeris_type": 0,
        "meta_classification_type": "U",
        "meta_norad_cat_id": 34488,
        "meta_element_set_no": 999,
        "meta_rev_at_epoch": 89318,
        "meta_bstar": 0.0036556344,
        "meta_mean_motion_dot": 0.00109948,
        "meta_mean_motion_ddot": 0,
        "tle_line1": "1 34488U 97051GD  25351.87802241  .00109948  00000+0  36556-2 0  9994",
        "tle_line2": "2 34488  86.3226 303.2651 0011645  42.4778 317.7370 15.30671430893182"
      },
      "geometry": {
        "type": "Point",
        "coordinates": [
          125.33811022896366,
          -32.178578769641426
        ]
      }
    }
  ]
}